[{"OBJECT_NAME":"STARLINK-34929","OBJECT_ID":"2025-175E","EPOCH":"2026-03-09T12:47:45.998592","MEAN_MOTION":15.05658367,"ECCENTRICITY":0.00023328,"INCLINATION":97.6032,"RA_OF_ASC_NODE":302.4513,"ARG_OF_PERICENTER":89.1334,"MEAN_ANOMALY":271.016,"EPHEMERIS_TYPE":0,"CLASSIFICATION_TYPE":"U","NORAD_CAT_ID":65178,"ELEMENT_SET_NO":999,"REV_AT_EPOCH":3261,"BSTAR":0.00056909631,"MEAN_MOTION_DOT":8.162e-5,"MEAN_MOTION_DDOT":0},{"OBJECT_NAME":"OBJECT F","OBJECT_ID":"2025-292F","EPOCH":"2026-03-09T22:41:00.950496","MEAN_MOTION":15.06065121,"ECCENTRICITY":0.00151037,"INCLINATION":97.6416,"RA_OF_ASC_NODE":145.7425,"ARG_OF_PERICENTER":346.7214,"MEAN_ANOMALY":13.3613,"EPHEMERIS_TYPE":0,"CLASSIFICATION_TYPE":"U","NORAD_CAT_ID":66998,"ELEMENT_SET_NO":999,"REV_AT_EPOCH":1351,"BSTAR":0.00047210602,"MEAN_MOTION_DOT":6.85e-5,"MEAN_MOTION_DDOT":0}]
